[{"OBJECT_NAME":"STARLINK-35910","OBJECT_ID":"2025-303X","EPOCH":"2026-03-09T01:27:09.464544","MEAN_MOTION":15.27604781,"ECCENTRICITY":1.845e-5,"INCLINATION":42.9961,"RA_OF_ASC_NODE":313.8596,"ARG_OF_PERICENTER":24.3355,"MEAN_ANOMALY":335.7505,"EPHEMERIS_TYPE":0,"CLASSIFICATION_TYPE":"U","NORAD_CAT_ID":67184,"ELEMENT_SET_NO":999,"REV_AT_EPOCH":1264,"BSTAR":0.0014300603,"MEAN_MOTION_DOT":0.0003933,"MEAN_MOTION_DDOT":0},{"OBJECT_NAME":"ELECTRON KICK STAGE R\/B","OBJECT_ID":"2022-147B","EPOCH":"2026-03-09T22:28:20.187264","MEAN_MOTION":15.28920172,"ECCENTRICITY":0.00095089,"INCLINATION":97.642,"RA_OF_ASC_NODE":85.1135,"ARG_OF_PERICENTER":110.4683,"MEAN_ANOMALY":249.7578,"EPHEMERIS_TYPE":0,"CLASSIFICATION_TYPE":"U","NORAD_CAT_ID":54228,"ELEMENT_SET_NO":999,"REV_AT_EPOCH":18390,"BSTAR":0.00083201931,"MEAN_MOTION_DOT":0.00023374,"MEAN_MOTION_DDOT":0}]
